*******************************************************************************
Ephemeris / WWW_USER Mon Mar 24 09:10:34 2025 Pasadena, USA      / Horizons    
*******************************************************************************
Target body name: 584778 (2017 RG16)              {source: JPL#32}
Center body name: Earth (399)                     {source: DE441}
Center-site name: Mauna Kea
*******************************************************************************
Start time      : A.D. 2018-Nov-11 03:53:00.0000 UT      
Stop  time      : A.D. 2018-Nov-11 16:18:00.0000 UT      
Step-size       : 1 minutes
*******************************************************************************
Target pole/equ : undefined
Target radii    : undefined                                                    
Center geodetic : 204.5278, 19.8260847, 4.21024   {E-lon(deg),Lat(deg),Alt(km)}
Center cylindric: 204.5278, 6006.35451, 2151.0229 {E-lon(deg),Dxy(km),Dz(km)}
Center pole/equ : ITRF93                          {East-longitude positive}
Center radii    : 6378.137, 6378.137, 6356.752 km {Equator_a, b, pole_c}       
Target primary  : Sun
Vis. interferer : MOON (R_eq= 1737.400) km        {source: DE441}
Rel. light bend : Sun                             {source: DE441}
Rel. lght bnd GM: 1.3271E+11 km^3/s^2                                          
Small-body perts: Yes                             {source: SB441-N16}
Atmos refraction: NO (AIRLESS)
RA format       : HMS
Time format     : CAL 
Calendar mode   : Mixed Julian/Gregorian
RTS-only print  : NO       
EOP file        : eop.250321.p250617                                           
EOP coverage    : DATA-BASED 1962-JAN-20 TO 2025-MAR-21. PREDICTS-> 2025-JUN-16
Units conversion: 1 au= 149597870.700 km, c= 299792.458 km/s, 1 day= 86400.0 s 
Table cut-offs 1: Elevation (-90.0deg=NO ),Airmass (>38.000=NO), Daylight (YES)
Table cut-offs 2: Solar elongation (  0.0,180.0=NO ),Local Hour Angle( 0.0=NO )
Table cut-offs 3: RA/DEC angular rate (     0.0=NO )                           
*******************************************************************************
Initial IAU76/J2000 heliocentric ecliptic osculating elements (au, days, deg.):
  EPOCH=  2458734.5 ! 2019-Sep-08.00 (TDB)         Residual RMS= .14786        
   EC= .9085798704456644   QR= 7.106644157383132   TP= 2457926.6828443832      
   OM= .547367620295521    W=  323.0265763955561   IN= 74.86683883750447       
  Equivalent ICRF heliocentric cartesian coordinates (au, au/d):
   X= 8.360714527577798E+00  Y=-2.241293784086399E-01  Z= 2.069107023705337E+00
  VX= 1.416407206608659E-03 VY=-1.132497676729848E-03 VZ= 7.848232694960624E-03
Asteroid physical parameters (km, seconds, rotational period in hours):        
   GM= n.a.                RAD= n.a.               ROTPER= n.a.                
   H= 11.32                G= .150                 B-V= n.a.                   
                           ALBEDO= n.a.            STYP= n.a.                  
*******************************************************************************
 Date__(UT)__HR:MN     R.A._________(ICRF)_________DEC
******************************************************
$$SOE
 2018-Nov-11 03:53 Cm  23 41 54.776514 -04 57 04.08682
 2018-Nov-11 03:54 Cm  23 41 54.762475 -04 57 03.98872
 2018-Nov-11 03:55 Cm  23 41 54.748435 -04 57 03.89061
 2018-Nov-11 03:56 Cm  23 41 54.734395 -04 57 03.79250
 2018-Nov-11 03:57 Cm  23 41 54.720353 -04 57 03.69438
 2018-Nov-11 03:58 Cm  23 41 54.706311 -04 57 03.59627
 2018-Nov-11 03:59 Cm  23 41 54.692269 -04 57 03.49815
 2018-Nov-11 04:00 Cm  23 41 54.678225 -04 57 03.40003
 2018-Nov-11 04:01 Cm  23 41 54.664181 -04 57 03.30190
 2018-Nov-11 04:02 Cm  23 41 54.650136 -04 57 03.20377
 2018-Nov-11 04:03 Cm  23 41 54.636090 -04 57 03.10564
 2018-Nov-11 04:04 Cm  23 41 54.622044 -04 57 03.00751
 2018-Nov-11 04:05 Cm  23 41 54.607997 -04 57 02.90938
 2018-Nov-11 04:06 Cm  23 41 54.593949 -04 57 02.81124
 2018-Nov-11 04:07 Nm  23 41 54.579901 -04 57 02.71310
 2018-Nov-11 04:08 Nm  23 41 54.565852 -04 57 02.61496
 2018-Nov-11 04:09 Nm  23 41 54.551802 -04 57 02.51681
 2018-Nov-11 04:10 Nm  23 41 54.537752 -04 57 02.41866
 2018-Nov-11 04:11 Nm  23 41 54.523701 -04 57 02.32051
 2018-Nov-11 04:12 Nm  23 41 54.509649 -04 57 02.22236
 2018-Nov-11 04:13 Nm  23 41 54.495596 -04 57 02.12420
 2018-Nov-11 04:14 Nm  23 41 54.481543 -04 57 02.02604
 2018-Nov-11 04:15 Nm  23 41 54.467489 -04 57 01.92788
 2018-Nov-11 04:16 Nm  23 41 54.453435 -04 57 01.82972
 2018-Nov-11 04:17 Nm  23 41 54.439380 -04 57 01.73155
 2018-Nov-11 04:18 Nm  23 41 54.425324 -04 57 01.63338
 2018-Nov-11 04:19 Nm  23 41 54.411268 -04 57 01.53521
 2018-Nov-11 04:20 Nm  23 41 54.397211 -04 57 01.43704
 2018-Nov-11 04:21 Nm  23 41 54.383154 -04 57 01.33886
 2018-Nov-11 04:22 Nm  23 41 54.369095 -04 57 01.24068
 2018-Nov-11 04:23 Nm  23 41 54.355037 -04 57 01.14249
 2018-Nov-11 04:24 Nm  23 41 54.340977 -04 57 01.04431
 2018-Nov-11 04:25 Nm  23 41 54.326917 -04 57 00.94612
 2018-Nov-11 04:26 Nm  23 41 54.312857 -04 57 00.84793
 2018-Nov-11 04:27 Nm  23 41 54.298796 -04 57 00.74974
 2018-Nov-11 04:28 Nm  23 41 54.284734 -04 57 00.65154
 2018-Nov-11 04:29 Nm  23 41 54.270672 -04 57 00.55334
 2018-Nov-11 04:30 Nm  23 41 54.256609 -04 57 00.45514
 2018-Nov-11 04:31 Nm  23 41 54.242545 -04 57 00.35693
 2018-Nov-11 04:32 Nm  23 41 54.228481 -04 57 00.25873
 2018-Nov-11 04:33 Nm  23 41 54.214417 -04 57 00.16052
 2018-Nov-11 04:34 Am  23 41 54.200352 -04 57 00.06230
 2018-Nov-11 04:35 Am  23 41 54.186286 -04 56 59.96409
 2018-Nov-11 04:36 Am  23 41 54.172220 -04 56 59.86587
 2018-Nov-11 04:37 Am  23 41 54.158153 -04 56 59.76765
 2018-Nov-11 04:38 Am  23 41 54.144086 -04 56 59.66942
 2018-Nov-11 04:39 Am  23 41 54.130018 -04 56 59.57120
 2018-Nov-11 04:40 Am  23 41 54.115950 -04 56 59.47297
 2018-Nov-11 04:41 Am  23 41 54.101881 -04 56 59.37473
 2018-Nov-11 04:42 Am  23 41 54.087812 -04 56 59.27650
 2018-Nov-11 04:43 Am  23 41 54.073742 -04 56 59.17826
 2018-Nov-11 04:44 Am  23 41 54.059672 -04 56 59.08002
 2018-Nov-11 04:45 Am  23 41 54.045601 -04 56 58.98178
 2018-Nov-11 04:46 Am  23 41 54.031530 -04 56 58.88353
 2018-Nov-11 04:47 Am  23 41 54.017458 -04 56 58.78528
 2018-Nov-11 04:48 Am  23 41 54.003386 -04 56 58.68703
 2018-Nov-11 04:49 Am  23 41 53.989313 -04 56 58.58877
 2018-Nov-11 04:50 Am  23 41 53.975240 -04 56 58.49051
 2018-Nov-11 04:51 Am  23 41 53.961167 -04 56 58.39225
 2018-Nov-11 04:52 Am  23 41 53.947093 -04 56 58.29399
 2018-Nov-11 04:53 Am  23 41 53.933018 -04 56 58.19572
 2018-Nov-11 04:54 Am  23 41 53.918943 -04 56 58.09745
 2018-Nov-11 04:55 Am  23 41 53.904868 -04 56 57.99918
 2018-Nov-11 04:56 Am  23 41 53.890792 -04 56 57.90091
 2018-Nov-11 04:57 Am  23 41 53.876716 -04 56 57.80263
 2018-Nov-11 04:58 Am  23 41 53.862639 -04 56 57.70435
 2018-Nov-11 04:59 Am  23 41 53.848562 -04 56 57.60607
 2018-Nov-11 05:00  m  23 41 53.834485 -04 56 57.50778
 2018-Nov-11 05:01  m  23 41 53.820407 -04 56 57.40949
 2018-Nov-11 05:02  m  23 41 53.806329 -04 56 57.31120
 2018-Nov-11 05:03  m  23 41 53.792251 -04 56 57.21290
 2018-Nov-11 05:04  m  23 41 53.778172 -04 56 57.11461
 2018-Nov-11 05:05  m  23 41 53.764092 -04 56 57.01630
 2018-Nov-11 05:06  m  23 41 53.750013 -04 56 56.91800
 2018-Nov-11 05:07  m  23 41 53.735933 -04 56 56.81969
 2018-Nov-11 05:08  m  23 41 53.721852 -04 56 56.72139
 2018-Nov-11 05:09  m  23 41 53.707772 -04 56 56.62307
 2018-Nov-11 05:10  m  23 41 53.693691 -04 56 56.52476
 2018-Nov-11 05:11  m  23 41 53.679609 -04 56 56.42644
 2018-Nov-11 05:12  m  23 41 53.665527 -04 56 56.32812
 2018-Nov-11 05:13  m  23 41 53.651445 -04 56 56.22980
 2018-Nov-11 05:14  m  23 41 53.637363 -04 56 56.13147
 2018-Nov-11 05:15  m  23 41 53.623280 -04 56 56.03314
 2018-Nov-11 05:16  m  23 41 53.609197 -04 56 55.93481
 2018-Nov-11 05:17  m  23 41 53.595114 -04 56 55.83647
 2018-Nov-11 05:18  m  23 41 53.581031 -04 56 55.73813
 2018-Nov-11 05:19  m  23 41 53.566947 -04 56 55.63979
 2018-Nov-11 05:20  m  23 41 53.552863 -04 56 55.54145
 2018-Nov-11 05:21  m  23 41 53.538778 -04 56 55.44310
 2018-Nov-11 05:22  m  23 41 53.524693 -04 56 55.34475
 2018-Nov-11 05:23  m  23 41 53.510609 -04 56 55.24640
 2018-Nov-11 05:24  m  23 41 53.496523 -04 56 55.14804
 2018-Nov-11 05:25  m  23 41 53.482438 -04 56 55.04968
 2018-Nov-11 05:26  m  23 41 53.468352 -04 56 54.95132
 2018-Nov-11 05:27  m  23 41 53.454266 -04 56 54.85295
 2018-Nov-11 05:28  m  23 41 53.440180 -04 56 54.75459
 2018-Nov-11 05:29  m  23 41 53.426094 -04 56 54.65622
 2018-Nov-11 05:30  m  23 41 53.412007 -04 56 54.55784
 2018-Nov-11 05:31  m  23 41 53.397920 -04 56 54.45946
 2018-Nov-11 05:32  m  23 41 53.383833 -04 56 54.36109
 2018-Nov-11 05:33  m  23 41 53.369746 -04 56 54.26270
 2018-Nov-11 05:34  m  23 41 53.355658 -04 56 54.16432
 2018-Nov-11 05:35  m  23 41 53.341571 -04 56 54.06593
 2018-Nov-11 05:36  m  23 41 53.327483 -04 56 53.96754
 2018-Nov-11 05:37  m  23 41 53.313395 -04 56 53.86914
 2018-Nov-11 05:38  m  23 41 53.299307 -04 56 53.77074
 2018-Nov-11 05:39  m  23 41 53.285219 -04 56 53.67234
 2018-Nov-11 05:40  m  23 41 53.271130 -04 56 53.57394
 2018-Nov-11 05:41  m  23 41 53.257041 -04 56 53.47553
 2018-Nov-11 05:42  m  23 41 53.242953 -04 56 53.37712
 2018-Nov-11 05:43  m  23 41 53.228864 -04 56 53.27871
 2018-Nov-11 05:44  m  23 41 53.214775 -04 56 53.18030
 2018-Nov-11 05:45  m  23 41 53.200686 -04 56 53.08188
 2018-Nov-11 05:46  m  23 41 53.186596 -04 56 52.98346
 2018-Nov-11 05:47  m  23 41 53.172507 -04 56 52.88503
 2018-Nov-11 05:48  m  23 41 53.158417 -04 56 52.78661
 2018-Nov-11 05:49  m  23 41 53.144328 -04 56 52.68817
 2018-Nov-11 05:50  m  23 41 53.130238 -04 56 52.58974
 2018-Nov-11 05:51  m  23 41 53.116148 -04 56 52.49130
 2018-Nov-11 05:52  m  23 41 53.102058 -04 56 52.39287
 2018-Nov-11 05:53  m  23 41 53.087968 -04 56 52.29442
 2018-Nov-11 05:54  m  23 41 53.073878 -04 56 52.19598
 2018-Nov-11 05:55  m  23 41 53.059788 -04 56 52.09753
